NORAD_CAT_ID,OBJECT_NAME,OBJECT_TYPE,EPOCH,MEAN_MOTION,ECCENTRICITY,INCLINATION,RA_OF_ASC_NODE,ARG_OF_PERICENTER,MEAN_ANOMALY,BSTAR,MEAN_MOTION_DOT,MEAN_MOTION_DDOT,TLE_LINE0,TLE_LINE1,TLE_LINE2,SEMIMAJOR_AXIS,PERIOD,APOGEE,PERIGEE,DECAYED
55744.0,STARLINK-5601,PAYLOAD,2023-12-05 12:23:48,14.98327576,0.0002757,69.999,165.1544,246.9754,113.1115,0.00029952,3.482e-05,0.0,0 STARLINK-5601,1 55744U 23028D   23339.51653040  .00003482  00000-0  29952-3 0  9991,2 55744  69.9990 165.1544 0002757 246.9754 113.1115 14.98327576 42431,6950.2,96.107,573.982,570.149,0.0
55744.0,STARLINK-5601,PAYLOAD,2023-12-05 22:00:36,14.98330039,0.0002796,69.9989,164.1444,248.8995,111.1866,0.00028442,3.302e-05,0.0,0 STARLINK-5601,1 55744U 23028D   23339.91708966  .00003302  00000-0  28442-3 0  9997,2 55744  69.9989 164.1444 0002796 248.8995 111.1866 14.98330039 42493,6950.193,96.107,574.001,570.114,0.0
55744.0,STARLINK-5601,PAYLOAD,2023-12-06 12:25:48,14.98339527,0.0002948,69.9981,162.6289,261.3667,98.7158,0.00017397,1.984e-05,0.0,0 STARLINK-5601,1 55744U 23028D   23340.51791942  .00001984  00000-0  17397-3 0  9992,2 55744  69.9981 162.6289 0002948 261.3667  98.7158 14.98339527 42585,6950.163,96.106,574.077,569.98,0.0
55744.0,STARLINK-5601,PAYLOAD,2023-12-06 22:02:36,14.98346453,0.0002828,69.9982,161.6173,259.6692,100.4148,0.0001664,1.894e-05,0.0,0 STARLINK-5601,1 55744U 23028D   23340.91847786  .00001894  00000-0  16640-3 0  9994,2 55744  69.9982 161.6173 0002828 259.6692 100.4148 14.98346453 42645,6950.142,96.106,573.973,570.042,0.0
55744.0,STARLINK-5601,PAYLOAD,2023-12-07 12:27:48,14.98341829,0.0002702,69.9976,160.101,259.9461,100.1394,9.8414e-05,1.082e-05,0.0,0 STARLINK-5601,1 55744U 23028D   23341.51931597  .00001082  00000-0  98414-4 0  9994,2 55744  69.9976 160.1010 0002702 259.9461 100.1394 14.98341829 42732,6950.156,96.106,573.899,570.143,0.0
55744.0,STARLINK-5601,PAYLOAD,2023-12-08 12:29:49,14.98338685,0.000257,69.9982,157.5782,261.5221,98.5647,8.2942e-06,6e-08,0.0,0 STARLINK-5601,1 55744U 23028D   23342.52071266  .00000006  00000-0  82942-5 0  9999,2 55744  69.9982 157.5782 0002570 261.5221  98.5647 14.98338685 42884,6950.166,96.106,573.817,570.245,0.0
55744.0,STARLINK-5601,PAYLOAD,2023-12-09 10:55:42,14.98334864,0.0002889,69.9971,155.2201,255.1922,104.8917,2.0258e-05,1.49e-06,0.0,0 STARLINK-5601,1 55744U 23028D   23343.45535302  .00000149  00000-0  20258-4 0  9997,2 55744  69.9971 155.2201 0002889 255.1922 104.8917 14.98334864 43026,6950.178,96.107,574.051,570.035,0.0
55744.0,STARLINK-5601,PAYLOAD,2023-12-09 12:31:50,14.98333929,0.0002361,70.0001,155.0549,247.84,112.2509,4.2576e-05,4.15e-06,0.0,0 STARLINK-5601,1 55744U 23028D   23343.52210970  .00000415  00000-0  42576-4 0  9999,2 55744  70.0001 155.0549 0002361 247.8400 112.2509 14.98333929 43032,6950.181,96.107,573.687,570.405,0.0
55744.0,STARLINK-5601,PAYLOAD,2023-12-09 22:08:38,14.98334341,0.0002678,69.9986,154.0441,264.1793,95.9061,3.8497e-05,3.66e-06,0.0,0 STARLINK-5601,1 55744U 23028D   23343.92266890  .00000366  00000-0  38497-4 0  9997,2 55744  69.9986 154.0441 0002678 264.1793  95.9061 14.98334341 43094,6950.179,96.107,573.906,570.183,0.0
55744.0,STARLINK-5601,PAYLOAD,2023-12-10 12:33:51,14.98332151,0.0002662,69.9978,152.5286,259.7019,100.384,7.2737e-05,7.75e-06,0.0,0 STARLINK-5601,1 55744U 23028D   23344.52350850  .00000775  00000-0  72737-4 0  9993,2 55744  69.9978 152.5286 0002662 259.7019 100.3840 14.98332151 43182,6950.186,96.107,573.901,570.201,0.0
55744.0,STARLINK-5601,PAYLOAD,2023-12-10 14:09:59,14.98332266,0.0002679,69.9981,152.3604,259.2468,100.8389,7.0063e-05,7.43e-06,0.0,0 STARLINK-5601,1 55744U 23028D   23344.59026836  .00000743  00000-0  70063-4 0  9999,2 55744  69.9981 152.3604 0002679 259.2468 100.8389 14.98332266 43190,6950.186,96.107,573.913,570.189,0.0
55744.0,STARLINK-5601,PAYLOAD,2023-12-10 20:34:31,14.98330451,0.000272,69.9986,151.6876,261.3904,98.6947,4.3764e-05,4.29e-06,0.0,0 STARLINK-5601,1 55744U 23028D   23344.85730958  .00000429  00000-0  43764-4 0  9994,2 55744  69.9986 151.6876 0002720 261.3904  98.6947 14.98330451 43237,6950.191,96.107,573.947,570.166,0.0
55744.0,STARLINK-5601,PAYLOAD,2023-12-11 14:12:00,14.98332401,0.0002752,69.9986,149.8358,260.3498,99.735,4.702e-05,4.68e-06,0.0,0 STARLINK-5601,1 55744U 23028D   23345.59166810  .00000468  00000-0  47020-4 0  9998,2 55744  69.9986 149.8358 0002752 260.3498  99.7350 14.98332401 43342,6950.185,96.107,573.963,570.138,0.0
55744.0,STARLINK-5601,PAYLOAD,2023-12-11 19:00:24,14.98332515,0.000275,69.9986,149.331,260.5651,99.5197,4.4481e-05,4.38e-06,0.0,0 STARLINK-5601,1 55744U 23028D   23345.79194780  .00000438  00000-0  44481-4 0  9992,2 55744  69.9986 149.3310 0002750 260.5651  99.5197 14.98332515 43372,6950.185,96.107,573.961,570.139,0.0
55744.0,STARLINK-5601,PAYLOAD,2023-12-11 20:36:32,14.98331721,0.0002754,69.9986,149.1626,261.0067,99.0781,3.1381e-05,2.81e-06,0.0,0 STARLINK-5601,1 55744U 23028D   23345.85870804  .00000281  00000-0  31381-4 0  9998,2 55744  69.9986 149.1626 0002754 261.0067  99.0781 14.98331721 43384,6950.188,96.107,573.967,570.138,0.0
55744.0,STARLINK-5601,PAYLOAD,2023-12-12 14:14:01,14.9833148,0.0002757,69.9987,147.3112,259.7995,100.2853,6.2966e-05,6.58e-06,0.0,0 STARLINK-5601,1 55744U 23028D   23346.59306760  .00000658  00000-0  62966-4 0  9996,2 55744  69.9987 147.3112 0002757 259.7995 100.2853 14.98331480 43491,6950.188,96.107,573.969,570.137,0.0
55744.0,STARLINK-5601,PAYLOAD,2023-12-12 19:02:25,14.98331313,0.0002754,69.9988,146.8065,259.8892,100.1956,5.87e-05,6.07e-06,0.0,0 STARLINK-5601,1 55744U 23028D   23346.79334777  .00000607  00000-0  58700-4 0  9992,2 55744  69.9988 146.8065 0002754 259.8892 100.1956 14.98331313 43529,6950.189,96.107,573.968,570.14,0.0
55744.0,STARLINK-5601,PAYLOAD,2023-12-12 20:38:33,14.98332267,0.0002748,69.9989,146.6383,259.6032,100.4818,6.9916e-05,7.41e-06,0.0,0 STARLINK-5601,1 55744U 23028D   23346.86010709  .00000741  00000-0  69916-4 0  9996,2 55744  69.9989 146.6383 0002748 259.6032 100.4818 14.98332267 43538,6950.186,96.107,573.961,570.141,0.0
55744.0,STARLINK-5601,PAYLOAD,2023-12-13 14:16:01,14.98333766,0.0002752,69.999,144.7869,259.5024,100.5825,7.4099e-05,7.91e-06,0.0,0 STARLINK-5601,1 55744U 23028D   23347.59446483  .00000791  00000-0  74099-4 0  9992,2 55744  69.9990 144.7869 0002752 259.5024 100.5825 14.98333766 43649,6950.181,96.107,573.959,570.134,0.0
55744.0,STARLINK-5601,PAYLOAD,2023-12-13 19:04:25,14.98334081,0.0002753,69.9991,144.2822,259.9892,100.0956,7.3612e-05,7.86e-06,0.0,0 STARLINK-5601,1 55744U 23028D   23347.79474439  .00000786  00000-0  73612-4 0  9990,2 55744  69.9991 144.2822 0002753 259.9892 100.0956 14.98334081 43676,6950.18,96.107,573.959,570.132,0.0
55744.0,STARLINK-5601,PAYLOAD,2023-12-13 20:40:33,14.98334453,0.0002754,69.9991,144.114,260.1248,99.96,7.5636e-05,8.1e-06,0.0,0 STARLINK-5601,1 55744U 23028D   23347.86150389  .00000810  00000-0  75636-4 0  9999,2 55744  69.9991 144.1140 0002754 260.1248  99.9600 14.98334453 43684,6950.179,96.107,573.958,570.13,0.0
55744.0,STARLINK-5601,PAYLOAD,2023-12-14 14:18:02,14.98330757,0.0002677,69.9996,142.2633,256.4695,103.6166,4.4612e-05,4.39e-06,0.0,0 STARLINK-5601,1 55744U 23028D   23348.59586674  .00000439  00000-0  44612-4 0  9997,2 55744  69.9996 142.2633 0002677 256.4695 103.6166 14.98330757 43798,6950.191,96.107,573.916,570.195,0.0
55744.0,STARLINK-5601,PAYLOAD,2023-12-14 20:42:35,14.98331128,0.0002635,69.9994,141.5895,255.7087,104.378,1.5443e-06,-7.5e-07,0.0,0 STARLINK-5601,1 55744U 23028D   23348.86290777 -.00000075  00000-0  15443-5 0  9991,2 55744  69.9994 141.5895 0002635 255.7087 104.3780 14.98331128 43837,6950.189,96.107,573.886,570.223,0.0
55744.0,STARLINK-5601,PAYLOAD,2023-12-15 14:20:04,14.98329582,0.0002589,69.9994,139.737,259.8314,100.2553,1.671e-05,1.06e-06,0.0,0 STARLINK-5601,1 55744U 23028D   23349.59726874  .00000106  00000-0  16710-4 0  9995,2 55744  69.9994 139.7370 0002589 259.8314 100.2553 14.98329582 43946,6950.194,96.107,573.859,570.26,0.0
55744.0,STARLINK-5601,PAYLOAD,2023-12-15 19:08:28,14.98329889,0.0002686,69.9994,139.2324,264.693,95.3922,5.79e-06,-2.4e-07,0.0,0 STARLINK-5601,1 55744U 23028D   23349.79754947 -.00000024  00000-0  57900-5 0  9996,2 55744  69.9994 139.2324 0002686 264.6930  95.3922 14.98329889 43973,6950.193,96.107,573.925,570.191,0.0
55744.0,STARLINK-5601,PAYLOAD,2023-12-16 11:09:48,14.98329581,0.0002989,69.9991,137.5474,272.6171,87.4646,0.00011839,1.32e-05,0.0,0 STARLINK-5601,1 55744U 23028D   23350.46514658  .00001320  00000-0  11839-3 0  9993,2 55744  69.9991 137.5474 0002989 272.6171  87.4646 14.98329581 44075,6950.194,96.107,574.137,569.982,0.0
55744.0,STARLINK-5601,PAYLOAD,2023-12-16 14:22:04,14.9833231,0.0002875,69.9988,137.2113,268.9629,91.1201,0.00010176,1.121e-05,0.0,0 STARLINK-5601,1 55744U 23028D   23350.59866564  .00001121  00000-0  10176-3 0  9995,2 55744  69.9988 137.2113 0002875 268.9629  91.1201 14.98332310 44093,6950.186,96.107,574.049,570.053,0.0
55744.0,STARLINK-5601,PAYLOAD,2023-12-16 19:10:28,14.98335414,0.0002755,69.9991,136.7069,265.2395,94.845,0.0001438,1.623e-05,0.0,0 STARLINK-5601,1 55744U 23028D   23350.79894270  .00001623  00000-0  14380-3 0  9990,2 55744  69.9991 136.7069 0002755 265.2395  94.8450 14.98335414 44126,6950.176,96.107,573.956,570.126,0.0
55744.0,STARLINK-5601,PAYLOAD,2023-12-17 12:47:57,14.98329421,0.0002646,69.9996,134.8564,257.8821,102.2041,8.5011e-05,9.21e-06,0.0,0 STARLINK-5601,1 55744U 23028D   23351.53330729  .00000921  00000-0  85011-4 0  9997,2 55744  69.9996 134.8564 0002646 257.8821 102.2041 14.98329421 44233,6950.195,96.107,573.899,570.221,0.0
55744.0,STARLINK-5601,PAYLOAD,2023-12-17 14:24:05,14.98329537,0.0002656,69.9996,134.688,257.9785,102.1076,8.4352e-05,9.14e-06,0.0,0 STARLINK-5601,1 55744U 23028D   23351.60006744  .00000914  00000-0  84352-4 0  9991,2 55744  69.9996 134.6880 0002656 257.9785 102.1076 14.98329537 44249,6950.194,96.107,573.905,570.213,0.0
